{
    "links": {
        "self": "http://www.neowsapp.com/rest/v1/neo/3785789?api_key=iIulBulltgU6a56xZRHN4H3l9WmuAYTsLGpBGhQ2"
    },
    "id": "3785789",
    "neo_reference_id": "3785789",
    "name": "(2017 TX4)",
    "designation": "2017 TX4",
    "nasa_jpl_url": "http://ssd.jpl.nasa.gov/sbdb.cgi?sstr=3785789",
    "absolute_magnitude_h": 26.5,
    "estimated_diameter": {
        "kilometers": {
            "estimated_diameter_min": 0.0133215567,
            "estimated_diameter_max": 0.0297879063
        },
        "meters": {
            "estimated_diameter_min": 13.3215566698,
            "estimated_diameter_max": 29.7879062798
        },
        "miles": {
            "estimated_diameter_min": 0.008277629,
            "estimated_diameter_max": 0.0185093411
        },
        "feet": {
            "estimated_diameter_min": 43.7058959846,
            "estimated_diameter_max": 97.7293544391
        }
    },
    "is_potentially_hazardous_asteroid": false,
    "close_approach_data": [
        {
            "close_approach_date": "2017-10-08",
            "close_approach_date_full": "2017-Oct-08 16:49",
            "epoch_date_close_approach": 1507481340000,
            "relative_velocity": {
                "kilometers_per_second": "10.498360168",
                "kilometers_per_hour": "37794.096604688",
                "miles_per_hour": "23483.7818597296"
            },
            "miss_distance": {
                "astronomical": "0.0185887533",
                "lunar": "7.2310250337",
                "kilometers": "2780837.899635471",
                "miles": "1727932.5455366598"
            },
            "orbiting_body": "Earth"
        }
    ],
    "orbital_data": {
        "orbit_id": "1",
        "orbit_determination_date": "2017-10-15 19:17:19",
        "first_observation_date": "2017-10-12",
        "last_observation_date": "2017-10-14",
        "data_arc_in_days": 2,
        "observations_used": 24,
        "orbit_uncertainty": "8",
        "minimum_orbit_intersection": ".0181236",
        "jupiter_tisserand_invariant": "3.227",
        "epoch_osculation": "2458039.5",
        "eccentricity": ".5882573894347398",
        "semi_major_axis": "2.429830450715202",
        "inclination": "10.73757799010684",
        "ascending_node_longitude": "17.53422789673662",
        "orbital_period": "1383.446542784515",
        "perihelion_distance": "1.00046473300844",
        "perihelion_argument": "341.3236591715689",
        "aphelion_distance": "3.859196168421964",
        "perihelion_time": "2458021.959585874856",
        "mean_anomaly": "4.564360739477729",
        "mean_motion": ".2602196679572557",
        "equinox": "J2000",
        "orbit_class": {
            "orbit_class_type": "APO",
            "orbit_class_description": "Near-Earth asteroid orbits which cross the Earth’s orbit similar to that of 1862 Apollo",
            "orbit_class_range": "a (semi-major axis) > 1.0 AU; q (perihelion) < 1.017 AU"
        }
    },
    "is_sentry_object": false
}